KUIPER-00603            
1 69287U 26118W   26157.83335647  .00044632  00000+0  12054-2 0  9992
2 69287  51.8664 103.3349 0005685 124.9312  95.6292 15.37299701  2259
KUIPER-00605            
1 69288U 26118X   26157.83335647  .00044631  00000+0  12225-2 0  9992
2 69288  51.8653 103.3634 0007835 129.9665  76.8157 15.36847899  2099
KUIPER-00606            
1 69289U 26118Y   26157.83335647  .00046596  00000+0  12482-2 0  9990
2 69289  51.8690 103.3185 0004783 118.4427 108.8549 15.37536393  1949
KUIPER-00607            
1 69290U 26118Z   26157.83335647  .00044593  00000+0  12075-2 0  9995
2 69290  51.8673 103.3388 0006559 123.3155  94.9028 15.37212007  1909
KUIPER-00608            
1 69291U 26118AA  26157.83335647 -.00264892  00000+0 -75997-2 0  9996
2 69291  51.8594 103.3947 0009863 142.0142  49.7622 15.36315773  1875
KUIPER-00610            
1 69292U 26118AB  26157.83335647  .00047119  00000+0  12404-2 0  9990
2 69292  51.8716 103.2821 0003003 104.0518 138.1356 15.38075347  1797
KUIPER-00613            
1 69293U 26118AC  26157.83335647 -.00373817  00000+0 -11127-1 0  9990
2 69293  51.8616 103.4131 0010167 151.4111  31.0198 15.35617829  1303
KUIPER-00618            
1 69294U 26118AD  26157.83335647  .00049589  00000+0  12878-2 0  9990
2 69294  51.8717 103.2580 0002102  68.0497 185.3539 15.38473419  1302
KUIPER-00620            
1 69295U 26118AE  26157.83335647  .00047395  00000+0  12441-2 0  9990
2 69295  51.8712 103.2787 0003048  91.1411 153.5231 15.38159971  2334
STARLINK-37501          
1 69296U 26119A   26157.83335647 -.02443595  00000+0 -12444-1 0  9990
2 69296  97.2830 183.0771 0001624  64.3606 331.6629 15.84486699  2224
STARLINK-37496          
1 69297U 26119B   26157.83335647 -.01731302  00000+0 -98000-2 0  9999
2 69297  97.2832 183.0777 0000837  89.0536 307.9529 15.82206741  2225
STARLINK-37519          
1 69298U 26119C   26157.83335647 -.02444870  00000+0 -12657-1 0  9995
2 69298  97.2831 183.0821 0001334  73.1941 334.2799 15.84150555  2227
STARLINK-37455          
1 69299U 26119D   26157.83335647 -.00758432  00000+0 -37637-2 0  9992
2 69299  97.2829 183.0796 0001350  61.0609 340.2383 15.83738821  2224
STARLINK-37456          
1 69300U 26119E   26157.83335647 -.01016730  00000+0 -50619-2 0  9999
2 69300  97.2829 183.0828 0001271  69.9997 339.0815 15.84297431  2226
STARLINK-37630          
1 69301U 26119F   26157.83335647 -.02505455  00000+0 -12800-1 0  9997
2 69301  97.2832 183.0847 0001332  82.5774 331.1923 15.84512143  2384
STARLINK-37804          
1 69302U 26119G   26157.83335647 -.02511036  00000+0 -13092-1 0  9994
2 69302  97.2832 183.0857 0001370  67.8389 348.6001 15.84095788  2387
STARLINK-37730          
1 69303U 26119H   26157.83335647 -.02487563  00000+0 -12142-1 0  9997
2 69303  97.2831 183.0882 0001414  88.4004 332.9468 15.85427282  2389
STARLINK-37731          
1 69304U 26119J   26157.83335647 -.02443129  00000+0 -12442-1 0  9991
2 69304  97.2833 183.0890 0001677  74.9885 349.6259 15.84484402  2388
STARLINK-37734          
1 69305U 26119K   26157.83335647 -.02479809  00000+0 -12134-1 0  9994
2 69305  97.2835 183.0906 0001515  69.4018 358.0787 15.85364486  2387
STARLINK-37701          
1 69306U 26119L   26157.83335647 -.02445173  00000+0 -12358-1 0  9990
2 69306  97.2835 183.0913 0001515  73.6182 357.3263 15.84647488  2381
STARLINK-37732          
1 69307U 26119M   26157.83335647 -.02457392  00000+0 -12486-1 0  9999
2 69307  97.2837 183.0928 0001462  78.8065 354.7772 15.84554601  2388
STARLINK-37689          
1 69308U 26119N   26157.83335647 -.01927448  00000+0 -92410-2 0  9999
2 69308  97.2830 183.0942 0001317  57.9230  18.6472 15.85497645  2387
STARLINK-37619          
1 69309U 26119P   26157.83335647 -.02466077  00000+0 -11972-1 0  9990
2 69309  97.2834 183.0959 0001554  61.0635  19.5718 15.85507377  2385
STARLINK-37794          
1 69310U 26119Q   26157.83335647 -.02404445  00000+0 -10951-1 0  9999
2 69310  97.2835 183.0986 0001695  76.7673   9.6412 15.87322884  2380
STARLINK-37795          
1 69311U 26119R   26157.83335647 -.01767859  00000+0 -79365-2 0  9995
2 69311  97.2835 183.0988 0001663  66.1513  21.6656 15.87074143  2380
STARLINK-37790          
1 69312U 26119S   26157.83335647 -.02379557  00000+0 -10548-1 0  9998
2 69312  97.2833 183.1005 0001785  68.3054  23.2513 15.87819731  2389
STARLINK-37676          
1 69313U 26119T   26157.83335647 -.01931375  00000+0 -80712-2 0  9991
2 69313  97.2838 183.1026 0001638  66.2154  29.9585 15.88815288  2389
STARLINK-37617          
1 69314U 26119U   26157.83335647 -.01791825  00000+0 -73270-2 0  9997
2 69314  97.2838 183.1033 0001589  73.8018  25.6965 15.88986874  2381
STARLINK-37627          
1 69315U 26119V   26157.83335647 -.02300178  00000+0 -94767-2 0  9990
2 69315  97.2838 183.1048 0001617  65.5811  36.9704 15.89141953  2387
STARLINK-37738          
1 69316U 26119W   26157.83335647 -.02493112  00000+0 -11520-1 0  9997
2 69316  97.2837 183.1052 0001606  76.4901  26.1670 15.86553645  2386
