OBJECT_NAME,OBJECT_ID,EPOCH,MEAN_MOTION,ECCENTRICITY,INCLINATION,RA_OF_ASC_NODE,ARG_OF_PERICENTER,MEAN_ANOMALY,EPHEMERIS_TYPE,CLASSIFICATION_TYPE,NORAD_CAT_ID,ELEMENT_SET_NO,REV_AT_EPOCH,BSTAR,MEAN_MOTION_DOT,MEAN_MOTION_DDOT
KUIPER-00603,2026-118W,2026-06-06T20:00:01.999008,15.37299701,.0005685,51.8664,103.3349,124.9312,95.6292,0,U,69287,999,225,.12054E-2,.44632E-3,0
KUIPER-00605,2026-118X,2026-06-06T20:00:01.999008,15.36847899,.0007835,51.8653,103.3634,129.9665,76.8157,0,U,69288,999,209,.12225E-2,.44631E-3,0
KUIPER-00606,2026-118Y,2026-06-06T20:00:01.999008,15.37536393,.0004783,51.8690,103.3185,118.4427,108.8549,0,U,69289,999,194,.12482E-2,.46596E-3,0
KUIPER-00607,2026-118Z,2026-06-06T20:00:01.999008,15.37212007,.0006559,51.8673,103.3388,123.3155,94.9028,0,U,69290,999,190,.12075E-2,.44593E-3,0
KUIPER-00608,2026-118AA,2026-06-06T20:00:01.999008,15.36315773,.0009863,51.8594,103.3947,142.0142,49.7622,0,U,69291,999,187,-.75997E-2,-.264892E-2,0
KUIPER-00610,2026-118AB,2026-06-06T20:00:01.999008,15.38075347,.0003003,51.8716,103.2821,104.0518,138.1356,0,U,69292,999,179,.12404E-2,.47119E-3,0
KUIPER-00613,2026-118AC,2026-06-06T20:00:01.999008,15.35617829,.0010167,51.8616,103.4131,151.4111,31.0198,0,U,69293,999,130,-.11127E-1,-.373817E-2,0
KUIPER-00618,2026-118AD,2026-06-06T20:00:01.999008,15.38473419,.0002102,51.8717,103.2580,68.0497,185.3539,0,U,69294,999,130,.12878E-2,.49589E-3,0
KUIPER-00620,2026-118AE,2026-06-06T20:00:01.999008,15.38159971,.0003048,51.8712,103.2787,91.1411,153.5231,0,U,69295,999,233,.12441E-2,.47395E-3,0
STARLINK-37501,2026-119A,2026-06-06T20:00:01.999008,15.84486699,.0001624,97.2830,183.0771,64.3606,331.6629,0,U,69296,999,222,-.12444E-1,-.2443595E-1,0
STARLINK-37496,2026-119B,2026-06-06T20:00:01.999008,15.82206741,.0000837,97.2832,183.0777,89.0536,307.9529,0,U,69297,999,222,-.98E-2,-.1731302E-1,0
STARLINK-37519,2026-119C,2026-06-06T20:00:01.999008,15.84150555,.0001334,97.2831,183.0821,73.1941,334.2799,0,U,69298,999,222,-.12657E-1,-.244487E-1,0
STARLINK-37455,2026-119D,2026-06-06T20:00:01.999008,15.83738821,.000135,97.2829,183.0796,61.0609,340.2383,0,U,69299,999,222,-.37637E-2,-.758432E-2,0
STARLINK-37456,2026-119E,2026-06-06T20:00:01.999008,15.84297431,.0001271,97.2829,183.0828,69.9997,339.0815,0,U,69300,999,222,-.50619E-2,-.101673E-1,0
STARLINK-37630,2026-119F,2026-06-06T20:00:01.999008,15.84512143,.0001332,97.2832,183.0847,82.5774,331.1923,0,U,69301,999,238,-.128E-1,-.2505455E-1,0
STARLINK-37804,2026-119G,2026-06-06T20:00:01.999008,15.84095788,.000137,97.2832,183.0857,67.8389,348.6001,0,U,69302,999,238,-.13092E-1,-.2511036E-1,0
STARLINK-37730,2026-119H,2026-06-06T20:00:01.999008,15.85427282,.0001414,97.2831,183.0882,88.4004,332.9468,0,U,69303,999,238,-.12142E-1,-.2487563E-1,0
STARLINK-37731,2026-119J,2026-06-06T20:00:01.999008,15.84484402,.0001677,97.2833,183.0890,74.9885,349.6259,0,U,69304,999,238,-.12442E-1,-.2443129E-1,0
STARLINK-37734,2026-119K,2026-06-06T20:00:01.999008,15.85364486,.0001515,97.2835,183.0906,69.4018,358.0787,0,U,69305,999,238,-.12134E-1,-.2479809E-1,0
STARLINK-37701,2026-119L,2026-06-06T20:00:01.999008,15.84647488,.0001515,97.2835,183.0913,73.6182,357.3263,0,U,69306,999,238,-.12358E-1,-.2445173E-1,0
STARLINK-37732,2026-119M,2026-06-06T20:00:01.999008,15.84554601,.0001462,97.2837,183.0928,78.8065,354.7772,0,U,69307,999,238,-.12486E-1,-.2457392E-1,0
STARLINK-37689,2026-119N,2026-06-06T20:00:01.999008,15.85497645,.0001317,97.2830,183.0942,57.9230,18.6472,0,U,69308,999,238,-.9241E-2,-.1927448E-1,0
STARLINK-37619,2026-119P,2026-06-06T20:00:01.999008,15.85507377,.0001554,97.2834,183.0959,61.0635,19.5718,0,U,69309,999,238,-.11972E-1,-.2466077E-1,0
STARLINK-37794,2026-119Q,2026-06-06T20:00:01.999008,15.87322884,.0001695,97.2835,183.0986,76.7673,9.6412,0,U,69310,999,238,-.10951E-1,-.2404445E-1,0
STARLINK-37795,2026-119R,2026-06-06T20:00:01.999008,15.87074143,.0001663,97.2835,183.0988,66.1513,21.6656,0,U,69311,999,238,-.79365E-2,-.1767859E-1,0
STARLINK-37790,2026-119S,2026-06-06T20:00:01.999008,15.87819731,.0001785,97.2833,183.1005,68.3054,23.2513,0,U,69312,999,238,-.10548E-1,-.2379557E-1,0
STARLINK-37676,2026-119T,2026-06-06T20:00:01.999008,15.88815288,.0001638,97.2838,183.1026,66.2154,29.9585,0,U,69313,999,238,-.80712E-2,-.1931375E-1,0
STARLINK-37617,2026-119U,2026-06-06T20:00:01.999008,15.88986874,.0001589,97.2838,183.1033,73.8018,25.6965,0,U,69314,999,238,-.7327E-2,-.1791825E-1,0
STARLINK-37627,2026-119V,2026-06-06T20:00:01.999008,15.89141953,.0001617,97.2838,183.1048,65.5811,36.9704,0,U,69315,999,238,-.94767E-2,-.2300178E-1,0
STARLINK-37738,2026-119W,2026-06-06T20:00:01.999008,15.86553645,.0001606,97.2837,183.1052,76.4901,26.1670,0,U,69316,999,238,-.1152E-1,-.2493112E-1,0
